#aV2023  6  2  0  0  0.00000000     288 DD+AD WGS84 FIT  NGA
## 2264 432000.00000000   300.00000000 60097 0.0000000000000
+   32     1  2  3  4  5  6  7  8  9 10 11 12 13 14 15 16 17
+         18 19 20 21 22 23 24 25 26 27 28 29 30 31 32  0  0
+          0  0  0  0  0  0  0  0  0  0  0  0  0  0  0  0  0
+          0  0  0  0  0  0  0  0  0  0  0  0  0  0  0  0  0
+          0  0  0  0  0  0  0  0  0  0  0  0  0  0  0  0  0
++         2  2  2  2  2  2  2  2  2  2  2  2  2  2  2  2  2
++         2  2  2  2  2  2  2  2  2  2  2  2  2  2  2  0  0
++         0  0  0  0  0  0  0  0  0  0  0  0  0  0  0  0  0
++         0  0  0  0  0  0  0  0  0  0  0  0  0  0  0  0  0
++         0  0  0  0  0  0  0  0  0  0  0  0  0  0  0  0  0
%c cc cc ccc ccc cccc cccc cccc cccc ccccc ccccc ccccc ccccc
%c cc cc ccc ccc cccc cccc cccc cccc ccccc ccccc ccccc ccccc
%f  0.0000000  0.000000000  0.00000000000  0.000000000000000
%f  0.0000000  0.000000000  0.00000000000  0.000000000000000
%i    0    0    0    0      0      0      0      0         0
%i    0    0    0    0      0      0      0      0         0
/*      NGA, ST. LOUIS,MO.                                  
/*   EPHEMERIS COMPUTED FROM 2 DAYS OF DATA                 
/*   EPOCHA v8 SMOOTHER                                     
/*   G2139 IERS2010 SATIGS SATAPC                           
*  2023  6  2 14 50  0.00000000
P  1  13741.835220  -5009.757219  21804.142950    180.982518                    
V  1   4417.265932  28119.163750   3958.593210     -0.025421                    
P  2  16253.853537   7644.370973  20260.627129   -589.799855                    
V  2   5009.977170  23839.910465 -13138.144181      0.040385                    
P  3  22460.788341 -11913.981266   7329.621534   -284.052260                    
V  3  -5969.084797   7716.364810  30400.340015      0.126089                    
P  4  21679.272843  -2385.562581 -15223.783571     57.586407                    
V  4  17053.580955   9247.679189  22704.417363      0.100976                    
P  5 -18210.097225  -1760.762911 -19471.869479   -129.565173                    
V  5  17371.014002 -17020.743326 -14726.198319     -0.014656                    
P  6  -5148.037462 -25932.857063  -1841.373930    586.734637                    
V  6   1609.651663  -2680.674809  32324.032205     -0.012996                    
P  7   7610.121812 -20037.383575 -14903.942253    162.748624                    
V  7   5809.884121  19296.495473 -22773.557684     -0.097610                    
P  8  25766.902705   5782.303302   4335.209727   -125.440468                    
V  8   4396.441576   4201.294869 -30817.138533     -0.018351                    
P  9  13244.853754 -10655.132488 -20488.984348   -145.008657                    
V  9  24048.569302   9565.549812  10566.426307      0.086749                    
P 10  -4859.842820  19274.464336  17635.501936    -39.492112                    
V 10 -18062.042081  12853.472486 -19520.982210     -0.016102                    
P 11 -12524.174131 -17853.851014 -15182.885150   -219.952336                    
V 11   -207.039371 -19356.074403  22881.258603     -0.145676                    
P 12 -23200.395119   8252.920834   9565.649680   -383.632328                    
V 12   8819.803610  -9299.506326  28667.038366     -0.046908                    
P 13 -22862.190270 -13682.345820  -1457.269494    528.536270                    
V 13   2558.755489  -1289.713487 -31736.615445      0.052170                    
P 14   8219.876274 -20047.911862  15271.419746     77.468740                    
V 14  16889.455270  -9948.331027 -22320.166879      0.125572                    
P 15 -26143.639494  -2691.101557   4244.893352     45.178321                    
V 15  -5019.621126  -4706.787095 -30322.490848      0.034963                    
P 16  15788.919522   6622.226409 -20722.617211   -495.400762                    
V 16 -20749.246055  14833.345238 -10791.021447      0.036297                    
P 17  -2666.902522 -16753.803251  20838.813794    717.033502                    
V 17  23542.771858   9785.720501  11214.377778      0.013389                    
P 18  -5782.259644  22325.628294 -13036.522363   -291.567791                    
V 18  -4355.259740 -16135.407395 -25855.612327     -0.153410                    
P 19 -11563.905757 -17930.805557  15786.374460    325.192343                    
V 19  18814.037797   7807.765278  22034.421528      0.051162                    
P 20 -11886.719739  -9879.872818 -21561.031480    430.203233                    
V 20  18019.166217 -20785.861833   -595.671647     -0.020783                    
P 21  16382.146539   4911.596101  21065.154999    153.423577                    
V 21   5797.134712  24641.840366  -9675.537597     -0.002663                    
P 22  14227.095230  17802.226342  14225.243708    491.488356                    
V 22 -16357.656971  -5748.804646  24178.127000      0.061373                    
P 23 -15359.515273  20158.241581   7682.809190     29.493934                    
V 23  -8943.192686   4600.794856 -30118.865029      0.034176                    
P 24 -15859.255061    599.948802  20972.475938   -210.854571                    
V 24  -6482.988768 -26763.514460  -3650.556650     -0.134220                    
P 25 -19852.770095  17414.007735   -893.170529    447.106124                    
V 25  -2692.270268  -2018.880257  31740.893216      0.025997                    
P 26   5956.327325  15480.211439 -20803.189056    239.850921                    
V 26 -19913.276875  17234.952464   7505.757255     -0.006849                    
P 27  22379.660445  13268.197835  -6588.603779     24.639351                    
V 27  -8174.538608   -814.127526 -30177.121164     -0.077970                    
P 28   5071.165225  26074.217723     92.837406     81.795708                    
V 28  -2778.906483    400.701420  31762.161432      0.018405                    
P 29 -16132.214437   7276.009671 -19890.964737   -601.523108                    
V 29 -22277.765849 -11521.172219  13802.644435     -0.012179                    
P 30    618.893820 -25676.718430  -6074.211551   -513.548449                    
V 30   4873.973672   7296.773108 -30049.221240      0.023430                    
P 31  11241.441512  20882.965185 -11682.320935   -217.329993                    
V 31   -782.944882  14983.355882  26857.668541     -0.007304                    
P 32   6488.684501  17030.924778  19569.993726   -491.115086                    
V 32 -23278.450308  -7405.695078  14101.438229     -0.087655                    
EOF
